#aV2006  2  6  0  0   .00000000      96 DD+AD WGS84 FIT  NGA
## 1361  86400.00000000   900.00000000 53772  .0000000000000
+   29     1  2  3  4  5  6  7  8  9 10 11 13 14 15 16 17 18
+         19 20 21 22 23 24 25 26 27 28 29 30  0  0  0  0  0
+          0  0  0  0  0  0  0  0  0  0  0  0  0  0  0  0  0
+          0  0  0  0  0  0  0  0  0  0  0  0  0  0  0  0  0
+          0  0  0  0  0  0  0  0  0  0  0  0  0  0  0  0  0
++         0  0  0  0  0  0  0  0  0  0  0  0  0  0  0  0  0
++         0  0  0  0  0  0  0  0  0  0  0  0  0  0  0  0  0
++         0  0  0  0  0  0  0  0  0  0  0  0  0  0  0  0  0
++         0  0  0  0  0  0  0  0  0  0  0  0  0  0  0  0  0
++         0  0  0  0  0  0  0  0  0  0  0  0  0  0  0  0  0
%c cc cc ccc ccc cccc cccc cccc cccc ccccc ccccc ccccc ccccc
%c cc cc ccc ccc cccc cccc cccc cccc ccccc ccccc ccccc ccccc
%f  0.0000000  0.000000000  0.00000000000  0.000000000000000
%f  0.0000000  0.000000000  0.00000000000  0.000000000000000
%i    0    0    0    0      0      0      0      0         0
%i    0    0    0    0      0      0      0      0         0
/*      NGA, ST. LOUIS,MO.                                  
/*   EPHEMERIS COMPUTED FROM  3 DAYS OF DATA                
/* CCCCCCCCCCCCCCCCCCCCCCCCCCCCCCCCCCCCCCCCCCCCCCCCCCCCCCCCC
/* CCCCCCCCCCCCCCCCCCCCCCCCCCCCCCCCCCCCCCCCCCCCCCCCCCCCCCCCC
*  2006  2  6 11 15   .00000000                                                 
P  1  14217.363653  -3642.506710 -21935.056304     35.248884                    
V  1   2966.668661  28110.029720  -2761.024590       .020795                    
P  2 -22968.266083  10864.709461  -7697.401693    -19.546558                    
V  2   5641.198716  -8175.701039 -29591.777961       .013814                    
P  3  13445.499863  -9997.980269  20392.662068     72.638564                    
V  3   7026.501523  25532.423314   8122.609555       .030225                    
P  4 -21393.483479   1777.467204 -15900.649171    141.068047                    
V  4  14924.180411 -13467.063134 -21279.398502       .114334                    
P  5  -1347.058646  16011.458567 -21356.706981    496.755515                    
V  5 -25597.622242  -7746.330723  -4065.163613       .072008                    
P  6   7035.299680  25321.753837   3708.801160    298.732813                    
V  6  -2877.136709   5057.854533 -30719.105899       .366361                    
P  7 -13674.601317   9080.626253 -20550.792357    489.394480                    
V  7  -6132.304823 -26269.937845  -7550.753894       .085994                    
P  8 -16028.941037  -5658.307983  20362.629446    -55.729264                    
V  8  20798.852625 -15704.939288  11532.340908      -.011264                    
P  9 -12020.664604  20720.525700 -11677.141306      6.690568                    
V  9 -12451.005559   7133.296083  26990.222008       .016166                    
P 10 -19044.358397   4956.639619  17900.040983     78.258961                    
V 10 -20385.091584 -10163.303114 -18480.184631       .006189                    
P 11   9745.740376 -22178.781428 -10671.207162    304.852527                    
V 11  12606.849460  -6841.105082  26124.738060       .029049                    
P 13  -6520.369417 -25156.955482   5560.015720     39.638956                    
V 13    952.930597  -7277.317758 -31333.453853       .024009                    
P 14  14182.489679  11973.006647 -18945.515245    -19.876201                    
V 14   1979.093212  24070.662063  16587.179629       .006106                    
P 15  15405.307869   7006.431788  20388.983065    561.534392                    
V 15 -21404.170000  15113.301316  10519.410765       .060224                    
P 16  23328.634774     46.995833  12861.894499     25.186621                    
V 16  14079.716448   8226.858323 -25643.762792       .017814                    
P 17 -14422.041806 -13527.522306 -17794.806677     44.908435                    
V 17  -1477.738879 -22528.764800  18267.419984       .083630                    
P 18  15368.575856  17367.055717  13302.742616   -219.191529                    
V 18 -15951.494387  -5117.634282  25003.449194      -.021717                    
P 19   7682.364081 -21744.422225  13246.071167    -22.177618                    
V 19   3563.582855  16453.971765  25163.035624       .008474                    
P 20   1218.067229 -15722.129412 -21458.110678    -33.390321                    
V 20  25306.752574   9579.919859  -5574.530238       .009130                    
P 21   7237.990375  13896.711585  21455.583396      3.027315                    
V 21 -22490.579280  15389.229507  -2890.962928       .034472                    
P 22  23529.820270  12248.552949   1468.132000     66.591098                    
V 22  -2767.463067   1939.449331  31597.796842       .023789                    
P 23    879.645718 -25710.764964  -6361.921685    151.523470                    
V 23   3686.140879   7560.151246 -30609.332661      -.014869                    
P 24 -11210.123659 -10462.435481 -21467.963752     83.321558                    
V 24  22693.594575 -16064.900343  -3738.158149       .029961                    
P 25  21545.786978  -6808.528141 -13643.209375   -157.825915                    
V 25 -11495.618299  14032.215023 -24335.191885       .933837                    
P 26  -9094.819523  17839.035943  16764.230686    -31.588329                    
V 26  -4167.662148 -21847.561259  21113.975515      -.083649                    
P 27  -7759.469030 -13739.730351  21928.747802     34.682790                    
V 27  20258.055770 -17087.124879  -3997.366731       .016340                    
P 28 -22594.757209 -13512.824955   4991.560408     33.839035                    
V 28   6420.617726    108.761993  30686.293757      -.007640                    
P 29 -11090.740753  14191.616877  19679.642767    524.525418                    
V 29  -4569.732533 -24062.075679  15209.958912       .125524                    
P 30   9047.538745  17402.063606 -18234.530347     22.947513                    
V 30 -21791.746943  -6268.673830 -16938.458230       .029482                    
EOF
